[Satellite]
VERSION=1.1
NAME=SENTINEL-2A
NICKNAME=SENTINEL-2A
TLE1=1 40697U 15028A   17186.15156180 -.00000462  00000-0 -15955-3 0  9994
TLE2=2 40697  98.5667 260.8590 0001081  74.5290 285.6049 14.30811796106265
